start=new Date('2022-04-06T00:00:00.000Z').valueOf();
sats=[{"BSTAR":"0.00019599000000","ELEMENT_SET_NO":"999","CENTER_NAME":"EARTH","MEAN_MOTION_DOT":"0.00002639","TIME_SYSTEM":"UTC","RCS_SIZE":"LARGE","EPHEMERIS_TYPE":"0","REV_AT_EPOCH":"5240","CLASSIFICATION_TYPE":"U","ECCENTRICITY":"0.00018480","SEMIMAJOR_AXIS":"6925.354","SITE":"AFETR","OBJECT_ID":"2021-038AQ","DECAY_DATE":null,"OBJECT_NAME":"STARLINK-2607","MEAN_MOTION":"15.06398255","GP_ID":"200544080","REF_FRAME":"TEME","PERIOD":"95.592","MEAN_ANOMALY":"308.5797","ARG_OF_PERICENTER":"51.5357","FILE":"3389912","MEAN_ELEMENT_THEORY":"SGP4","COUNTRY_CODE":"US","APOAPSIS":"548.499","PERIAPSIS":"545.939","LAUNCH_DATE":"2021-05-04","NORAD_CAT_ID":"48391","OBJECT_TYPE":"PAYLOAD","RA_OF_ASC_NODE":"298.5254","EPOCH":"2022-04-05T19:37:46.353504","TLE_LINE2":"2 48391  53.0551 298.5254 0001848  51.5357 308.5797 15.06398255 52402","TLE_LINE1":"1 48391U 21038AQ  22095.81789761  .00002639  00000-0  19599-3 0  9990","MEAN_MOTION_DDOT":"0.0000000000000","INCLINATION":"53.0551"},{"TIME_SYSTEM":"UTC","RCS_SIZE":"LARGE","MEAN_MOTION_DOT":"0.00002957","REV_AT_EPOCH":"5240","EPHEMERIS_TYPE":"0","CLASSIFICATION_TYPE":"U","ELEMENT_SET_NO":"999","CENTER_NAME":"EARTH","BSTAR":"0.00021728000000","GP_ID":"200543328","MEAN_MOTION":"15.06405961","ARG_OF_PERICENTER":"57.4242","PERIOD":"95.592","MEAN_ANOMALY":"302.6917","REF_FRAME":"TEME","SITE":"AFETR","SEMIMAJOR_AXIS":"6925.330","OBJECT_ID":"2021-038AR","ECCENTRICITY":"0.00017580","DECAY_DATE":null,"OBJECT_NAME":"STARLINK-2605","PERIAPSIS":"545.978","LAUNCH_DATE":"2021-05-04","OBJECT_TYPE":"PAYLOAD","NORAD_CAT_ID":"48392","COUNTRY_CODE":"US","FILE":"3389912","MEAN_ELEMENT_THEORY":"SGP4","APOAPSIS":"548.413","INCLINATION":"53.0548","TLE_LINE1":"1 48392U 21038AR  22095.81421060  .00002957  00000-0  21728-3 0  9996","TLE_LINE2":"2 48392  53.0548 298.5419 0001758  57.4242 302.6917 15.06405961 52402","MEAN_MOTION_DDOT":"0.0000000000000","EPOCH":"2022-04-05T19:32:27.795840","RA_OF_ASC_NODE":"298.5419"},{"MEAN_MOTION_DOT":"0.00002783","TIME_SYSTEM":"UTC","RCS_SIZE":"LARGE","REV_AT_EPOCH":"5241","EPHEMERIS_TYPE":"0","CLASSIFICATION_TYPE":"U","BSTAR":"0.00020567000000","ELEMENT_SET_NO":"999","CENTER_NAME":"EARTH","MEAN_MOTION":"15.06392983","GP_ID":"200543578","REF_FRAME":"TEME","PERIOD":"95.593","MEAN_ANOMALY":"304.3380","ARG_OF_PERICENTER":"55.7766","ECCENTRICITY":"0.00016600","SEMIMAJOR_AXIS":"6925.370","SITE":"AFETR","OBJECT_ID":"2021-038AS","DECAY_DATE":null,"OBJECT_NAME":"STARLINK-2602","PERIAPSIS":"546.085","LAUNCH_DATE":"2021-05-04","NORAD_CAT_ID":"48393","OBJECT_TYPE":"PAYLOAD","MEAN_ELEMENT_THEORY":"SGP4","FILE":"3389912","COUNTRY_CODE":"US","APOAPSIS":"548.385","TLE_LINE2":"2 48393  53.0544 298.2671 0001660  55.7766 304.3380 15.06392983 52413","MEAN_MOTION_DDOT":"0.0000000000000","TLE_LINE1":"1 48393U 21038AS  22095.87688440  .00002783  00000-0  20567-3 0  9997","INCLINATION":"53.0544","RA_OF_ASC_NODE":"298.2671","EPOCH":"2022-04-05T21:02:42.812160"},{"OBJECT_ID":"2021-038AT","SITE":"AFETR","SEMIMAJOR_AXIS":"6925.342","ECCENTRICITY":"0.00015660","OBJECT_NAME":"STARLINK-2573","DECAY_DATE":null,"GP_ID":"200519299","MEAN_MOTION":"15.06402214","PERIOD":"95.592","MEAN_ANOMALY":"296.1115","ARG_OF_PERICENTER":"64.0036","REF_FRAME":"TEME","CENTER_NAME":"EARTH","ELEMENT_SET_NO":"999","BSTAR":"0.00008436800000","RCS_SIZE":"LARGE","TIME_SYSTEM":"UTC","MEAN_MOTION_DOT":"0.00000975","CLASSIFICATION_TYPE":"U","EPHEMERIS_TYPE":"0","REV_AT_EPOCH":"5178","EPOCH":"2022-04-05T20:57:22.975776","RA_OF_ASC_NODE":"298.2698","INCLINATION":"53.0554","TLE_LINE2":"2 48394  53.0554 298.2698 0001566  64.0036 296.1115 15.06402214 51784","MEAN_MOTION_DDOT":"0.0000000000000","TLE_LINE1":"1 48394U 21038AT  22095.87318259  .00000975  00000-0  84368-4 0  9997","COUNTRY_CODE":"US","MEAN_ELEMENT_THEORY":"SGP4","FILE":"3389778","APOAPSIS":"548.291","LAUNCH_DATE":"2021-05-04","PERIAPSIS":"546.122","OBJECT_TYPE":"PAYLOAD","NORAD_CAT_ID":"48394"},{"RA_OF_ASC_NODE":"298.3414","EPOCH":"2022-04-05T20:34:47.764128","TLE_LINE1":"1 48395U 21038AU  22095.85749727  .00002023  00000-0  15469-3 0  9995","TLE_LINE2":"2 48395  53.0567 298.3414 0001445  54.8758 305.2366 15.06394363 52416","MEAN_MOTION_DDOT":"0.0000000000000","INCLINATION":"53.0567","FILE":"3389912","MEAN_ELEMENT_THEORY":"SGP4","COUNTRY_CODE":"US","APOAPSIS":"548.232","LAUNCH_DATE":"2021-05-04","PERIAPSIS":"546.230","NORAD_CAT_ID":"48395","OBJECT_TYPE":"PAYLOAD","ECCENTRICITY":"0.00014450","SEMIMAJOR_AXIS":"6925.366","SITE":"AFETR","OBJECT_ID":"2021-038AU","DECAY_DATE":null,"OBJECT_NAME":"STARLINK-2574","MEAN_MOTION":"15.06394363","GP_ID":"200544580","REF_FRAME":"TEME","ARG_OF_PERICENTER":"54.8758","PERIOD":"95.592","MEAN_ANOMALY":"305.2366","BSTAR":"0.00015469000000","ELEMENT_SET_NO":"999","CENTER_NAME":"EARTH","MEAN_MOTION_DOT":"0.00002023","TIME_SYSTEM":"UTC","RCS_SIZE":"LARGE","EPHEMERIS_TYPE":"0","REV_AT_EPOCH":"5241","CLASSIFICATION_TYPE":"U"},{"LAUNCH_DATE":"2021-05-04","PERIAPSIS":"546.106","OBJECT_TYPE":"PAYLOAD","NORAD_CAT_ID":"48396","COUNTRY_CODE":"US","FILE":"3389912","MEAN_ELEMENT_THEORY":"SGP4","APOAPSIS":"548.314","INCLINATION":"53.0553","TLE_LINE2":"2 48396  53.0553 298.2961 0001594  58.1962 301.9182 15.06401149 52417","TLE_LINE1":"1 48396U 21038AV  22095.86949282  .00002043  00000-0  15598-3 0  9990","MEAN_MOTION_DDOT":"0.0000000000000","EPOCH":"2022-04-05T20:52:04.179648","RA_OF_ASC_NODE":"298.2961","RCS_SIZE":"LARGE","TIME_SYSTEM":"UTC","MEAN_MOTION_DOT":"0.00002043","CLASSIFICATION_TYPE":"U","EPHEMERIS_TYPE":"0","REV_AT_EPOCH":"5241","CENTER_NAME":"EARTH","ELEMENT_SET_NO":"999","BSTAR":"0.00015598000000","GP_ID":"200542829","MEAN_MOTION":"15.06401149","MEAN_ANOMALY":"301.9182","PERIOD":"95.592","ARG_OF_PERICENTER":"58.1962","REF_FRAME":"TEME","OBJECT_ID":"2021-038AV","SITE":"AFETR","SEMIMAJOR_AXIS":"6925.345","ECCENTRICITY":"0.00015940","OBJECT_NAME":"STARLINK-2575","DECAY_DATE":null},{"INCLINATION":"53.0544","TLE_LINE2":"2 48397  53.0544 298.3101 0001502  74.1815 285.9340 15.06399297 51785","TLE_LINE1":"1 48397U 21038AW  22095.86581513  .00003140  00000-0  22961-3 0  9991","MEAN_MOTION_DDOT":"0.0000000000000","EPOCH":"2022-04-05T20:46:46.427232","RA_OF_ASC_NODE":"298.3101","PERIAPSIS":"546.176","LAUNCH_DATE":"2021-05-04","OBJECT_TYPE":"PAYLOAD","NORAD_CAT_ID":"48397","COUNTRY_CODE":"US","MEAN_ELEMENT_THEORY":"SGP4","FILE":"3389778","APOAPSIS":"548.256","GP_ID":"200519298","MEAN_MOTION":"15.06399297","PERIOD":"95.592","MEAN_ANOMALY":"285.9340","ARG_OF_PERICENTER":"74.1815","REF_FRAME":"TEME","OBJECT_ID":"2021-038AW","SITE":"AFETR","SEMIMAJOR_AXIS":"6925.351","ECCENTRICITY":"0.00015020","OBJECT_NAME":"STARLINK-2590","DECAY_DATE":null,"RCS_SIZE":"LARGE","TIME_SYSTEM":"UTC","MEAN_MOTION_DOT":"0.00003140","CLASSIFICATION_TYPE":"U","REV_AT_EPOCH":"5178","EPHEMERIS_TYPE":"0","CENTER_NAME":"EARTH","ELEMENT_SET_NO":"999","BSTAR":"0.00022961000000"},{"INCLINATION":"53.0546","TLE_LINE2":"2 48398  53.0546 298.3266 0001560  59.0400 301.0742 15.06391251 52415","MEAN_MOTION_DDOT":"0.0000000000000","TLE_LINE1":"1 48398U 21038AX  22095.86212480  .00001985  00000-0  15216-3 0  9996","EPOCH":"2022-04-05T20:41:27.582720","RA_OF_ASC_NODE":"298.3266","LAUNCH_DATE":"2021-05-04","PERIAPSIS":"546.160","OBJECT_TYPE":"PAYLOAD","NORAD_CAT_ID":"48398","COUNTRY_CODE":"US","FILE":"3389912","MEAN_ELEMENT_THEORY":"SGP4","APOAPSIS":"548.321","GP_ID":"200544330","MEAN_MOTION":"15.06391251","PERIOD":"95.593","MEAN_ANOMALY":"301.0742","ARG_OF_PERICENTER":"59.0400","REF_FRAME":"TEME","SITE":"AFETR","SEMIMAJOR_AXIS":"6925.375","OBJECT_ID":"2021-038AX","ECCENTRICITY":"0.00015600","DECAY_DATE":null,"OBJECT_NAME":"STARLINK-2588","TIME_SYSTEM":"UTC","RCS_SIZE":"LARGE","MEAN_MOTION_DOT":"0.00001985","EPHEMERIS_TYPE":"0","REV_AT_EPOCH":"5241","CLASSIFICATION_TYPE":"U","ELEMENT_SET_NO":"999","CENTER_NAME":"EARTH","BSTAR":"0.00015216000000"},{"EPOCH":"2022-04-05T20:36:09.307584","RA_OF_ASC_NODE":"298.3453","INCLINATION":"53.0543","TLE_LINE2":"2 48399  53.0543 298.3453 0001620  53.6430 306.4708 15.06401853 52401","MEAN_MOTION_DDOT":"0.0000000000000","TLE_LINE1":"1 48399U 21038AY  22095.85844106  .00001734  00000-0  13526-3 0  9996","COUNTRY_CODE":"US","FILE":"3389912","MEAN_ELEMENT_THEORY":"SGP4","APOAPSIS":"548.330","LAUNCH_DATE":"2021-05-04","PERIAPSIS":"546.086","OBJECT_TYPE":"PAYLOAD","NORAD_CAT_ID":"48399","SEMIMAJOR_AXIS":"6925.343","SITE":"AFETR","OBJECT_ID":"2021-038AY","ECCENTRICITY":"0.00016200","DECAY_DATE":null,"OBJECT_NAME":"STARLINK-2587","GP_ID":"200544081","MEAN_MOTION":"15.06401853","ARG_OF_PERICENTER":"53.6430","PERIOD":"95.592","MEAN_ANOMALY":"306.4708","REF_FRAME":"TEME","ELEMENT_SET_NO":"999","CENTER_NAME":"EARTH","BSTAR":"0.00013526000000","TIME_SYSTEM":"UTC","RCS_SIZE":"LARGE","MEAN_MOTION_DOT":"0.00001734","EPHEMERIS_TYPE":"0","REV_AT_EPOCH":"5240","CLASSIFICATION_TYPE":"U"},{"BSTAR":"0.00033567000000","ELEMENT_SET_NO":"999","CENTER_NAME":"EARTH","MEAN_MOTION_DOT":"0.00004723","TIME_SYSTEM":"UTC","RCS_SIZE":"LARGE","REV_AT_EPOCH":"5119","EPHEMERIS_TYPE":"0","CLASSIFICATION_TYPE":"U","ECCENTRICITY":"0.00016910","SITE":"AFETR","SEMIMAJOR_AXIS":"6925.328","OBJECT_ID":"2021-038AZ","DECAY_DATE":null,"OBJECT_NAME":"STARLINK-2576","MEAN_MOTION":"15.06406660","GP_ID":"200543329","REF_FRAME":"TEME","PERIOD":"95.592","MEAN_ANOMALY":"309.5326","ARG_OF_PERICENTER":"50.5812","MEAN_ELEMENT_THEORY":"SGP4","FILE":"3389912","COUNTRY_CODE":"US","APOAPSIS":"548.364","PERIAPSIS":"546.022","LAUNCH_DATE":"2021-05-04","NORAD_CAT_ID":"48400","OBJECT_TYPE":"PAYLOAD","RA_OF_ASC_NODE":"298.3663","EPOCH":"2022-04-05T20:30:50.862240","TLE_LINE2":"2 48400  53.0537 298.3663 0001691  50.5812 309.5326 15.06406660 51194","MEAN_MOTION_DDOT":"0.0000000000000","TLE_LINE1":"1 48400U 21038AZ  22095.85475535  .00004723  00000-0  33567-3 0  9993","INCLINATION":"53.0537"}];
